[Satellite]
VERSION=1.1
NAME=COSMOS 2278
NICKNAME=COSMOS 2278
TLE1=1 23087U 94023A   15054.18120453  .00000366  00000-0  21890-3 0  9995
TLE2=2 23087  71.0550 324.9474 0007315  59.1163  97.9547 14.13643234 75075
